{
  "type": "FeatureCollection",
  "name": "city_bbox_sample",
  "crs": {
    "type": "name",
    "properties": {
      "name": "urn:ogc:def:crs:OGC:1.3:CRS84"
    }
  },
  "features": [
    {
      "type": "Feature",
      "properties": {
        "name": "Mumbai (dev bbox)"
      },
      "geometry": {
        "type": "Polygon",
        "coordinates": [
          [
            [72.8, 18.9],
            [72.9, 18.9],
            [72.9, 19.02],
            [72.8, 19.02],
            [72.8, 18.9]
          ]
        ]
      }
    }
  ]
}
